{"type": "FeatureCollection", "features": [ {"type": "Feature", "properties": {"norad_id": 66900, "name": "STARLINK-36074", "group": "last-30-days", "lat": -11.429698818767132, "lon": -8.408835002394774, "alt_km": 414.0651268425863, "timestamp": "2025-12-27T12:55:13.196437+00:00", "meta": {"OBJECT_NAME": "STARLINK-36074", "OBJECT_ID": "2025-283Y", "EPOCH": "2025-12-27T06:00:02.000160", "MEAN_MOTION": 15.53014037, "ECCENTRICITY": 0.00013797, "INCLINATION": 53.1597, "RA_OF_ASC_NODE": 1.6948, "ARG_OF_PERICENTER": 81.0604, "MEAN_ANOMALY": 92.492, "EPHEMERIS_TYPE": 0, "CLASSIFICATION_TYPE": "U", "NORAD_CAT_ID": 66900, "ELEMENT_SET_NO": 999, "REV_AT_EPOCH": 476, "BSTAR": -0.036128929, "MEAN_MOTION_DOT": -0.02045798, "MEAN_MOTION_DDOT": 0}, "tle": {"line1": "1 66900U 25283Y   25361.25002315 -.02045798  00000+0 -36129-1 0  9994", "line2": "2 66900  53.1597   1.6948 0001379  81.0604  92.4920 15.53014037  4762"}}, "geometry": {"type": "Point", "coordinates": [-8.408835002394774, -11.429698818767132]}}, {"type": "Feature", "properties": {"norad_id": 66901, "name": "STARLINK-36043", "group": "last-30-days", "lat": -9.913050174370902, "lon": -7.223750136412517, "alt_km": 413.89862879185875, "timestamp": "2025-12-27T12:55:13.196458+00:00", "meta": {"OBJECT_NAME": "STARLINK-36043", "OBJECT_ID": "2025-283Z", "EPOCH": "2025-12-27T06:00:02.000160", "MEAN_MOTION": 15.53015322, "ECCENTRICITY": 0.00015198, "INCLINATION": 53.1597, "RA_OF_ASC_NODE": 1.6904, "ARG_OF_PERICENTER": 82.0697, "MEAN_ANOMALY": 93.3996, "EPHEMERIS_TYPE": 0, "CLASSIFICATION_TYPE": "U", "NORAD_CAT_ID": 66901, "ELEMENT_SET_NO": 999, "REV_AT_EPOCH": 476, "BSTAR": -0.036195088, "MEAN_MOTION_DOT": -0.02049314, "MEAN_MOTION_DDOT": 0}, "tle": {"line1": "1 66901U 25283Z   25361.25002315 -.02049314  00000+0 -36195-1 0  9996", "line2": "2 66901  53.1597   1.6904 0001519  82.0697  93.3996 15.53015322  4765"}}, "geometry": {"type": "Point", "coordinates": [-7.223750136412517, -9.913050174370902]}}, {"type": "Feature", "properties": {"norad_id": 66902, "name": "STARLINK-35983", "group": "last-30-days", "lat": -8.389584506108696, "lon": -6.046957559243341, "alt_km": 413.6871878976408, "timestamp": "2025-12-27T12:55:13.196470+00:00", "meta": {"OBJECT_NAME": "STARLINK-35983", "OBJECT_ID": "2025-283AA", "EPOCH": "2025-12-27T06:00:02.000160", "MEAN_MOTION": 15.53018548, "ECCENTRICITY": 0.00014097, "INCLINATION": 53.1598, "RA_OF_ASC_NODE": 1.6866, "ARG_OF_PERICENTER": 81.9383, "MEAN_ANOMALY": 95.4463, "EPHEMERIS_TYPE": 0, "CLASSIFICATION_TYPE": "U", "NORAD_CAT_ID": 66902, "ELEMENT_SET_NO": 999, "REV_AT_EPOCH": 476, "BSTAR": -0.036262012, "MEAN_MOTION_DOT": -0.02052839, "MEAN_MOTION_DDOT": 0}, "tle": {"line1": "1 66902U 25283AA  25361.25002315 -.02052839  00000+0 -36262-1 0  9998", "line2": "2 66902  53.1598   1.6866 0001409  81.9383  95.4463 15.53018548  4767"}}, "geometry": {"type": "Point", "coordinates": [-6.046957559243341, -8.389584506108696]}}, {"type": "Feature", "properties": {"norad_id": 66903, "name": "STARLINK-36077", "group": "last-30-days", "lat": -6.864392781886187, "lon": -4.880522338323018, "alt_km": 413.448221577225, "timestamp": "2025-12-27T12:55:13.196480+00:00", "meta": {"OBJECT_NAME": "STARLINK-36077", "OBJECT_ID": "2025-283AB", "EPOCH": "2025-12-27T06:00:02.000160", "MEAN_MOTION": 15.53016766, "ECCENTRICITY": 0.0001442, "INCLINATION": 53.16, "RA_OF_ASC_NODE": 1.683, "ARG_OF_PERICENTER": 79.5132, "MEAN_ANOMALY": 99.7893, "EPHEMERIS_TYPE": 0, "CLASSIFICATION_TYPE": "U", "NORAD_CAT_ID": 66903, "ELEMENT_SET_NO": 999, "REV_AT_EPOCH": 476, "BSTAR": -0.036227942, "MEAN_MOTION_DOT": -0.0205102, "MEAN_MOTION_DDOT": 0}, "tle": {"line1": "1 66903U 25283AB  25361.25002315 -.02051020  00000+0 -36228-1 0  9992", "line2": "2 66903  53.1600   1.6830 0001442  79.5132  99.7893 15.53016766  4769"}}, "geometry": {"type": "Point", "coordinates": [-4.880522338323018, -6.864392781886187]}}, {"type": "Feature", "properties": {"norad_id": 66904, "name": "STARLINK-36059", "group": "last-30-days", "lat": -5.338460746330356, "lon": -3.7244313127674786, "alt_km": 413.1232758947617, "timestamp": "2025-12-27T12:55:13.196490+00:00", "meta": {"OBJECT_NAME": "STARLINK-36059", "OBJECT_ID": "2025-283AC", "EPOCH": "2025-12-27T06:00:02.000160", "MEAN_MOTION": 15.53012453, "ECCENTRICITY": 0.00015319, "INCLINATION": 53.1598, "RA_OF_ASC_NODE": 1.6782, "ARG_OF_PERICENTER": 72.7021, "MEAN_ANOMALY": 108.5167, "EPHEMERIS_TYPE": 0, "CLASSIFICATION_TYPE": "U", "NORAD_CAT_ID": 66904, "ELEMENT_SET_NO": 999, "REV_AT_EPOCH": 476, "BSTAR": -0.036092545, "MEAN_MOTION_DOT": -0.02043949, "MEAN_MOTION_DDOT": 0}, "tle": {"line1": "1 66904U 25283AC  25361.25002315 -.02043949  00000+0 -36093-1 0  9994", "line2": "2 66904  53.1598   1.6782 0001531  72.7021 108.5167 15.53012453  4765"}}, "geometry": {"type": "Point", "coordinates": [-3.7244313127674786, -5.338460746330356]}}, {"type": "Feature", "properties": {"norad_id": 66905, "name": "STARLINK-36075", "group": "last-30-days", "lat": -3.808161539744625, "lon": -2.5711200967566374, "alt_km": 413.0003710655992, "timestamp": "2025-12-27T12:55:13.196500+00:00", "meta": {"OBJECT_NAME": "STARLINK-36075", "OBJECT_ID": "2025-283AD", "EPOCH": "2025-12-27T06:00:02.000160", "MEAN_MOTION": 15.53008949, "ECCENTRICITY": 0.00016103, "INCLINATION": 53.1597, "RA_OF_ASC_NODE": 1.6747, "ARG_OF_PERICENTER": 78.9772, "MEAN_ANOMALY": 104.1609, "EPHEMERIS_TYPE": 0, "CLASSIFICATION_TYPE": "U", "NORAD_CAT_ID": 66905, "ELEMENT_SET_NO": 999, "REV_AT_EPOCH": 476, "BSTAR": -0.036016067, "MEAN_MOTION_DOT": -0.020399, "MEAN_MOTION_DDOT": 0}, "tle": {"line1": "1 66905U 25283AD  25361.25002315 -.02039900  00000+0 -36016-1 0  9992", "line2": "2 66905  53.1597   1.6747 0001610  78.9772 104.1609 15.53008949  4763"}}, "geometry": {"type": "Point", "coordinates": [-2.5711200967566374, -3.808161539744625]}}, {"type": "Feature", "properties": {"norad_id": 66906, "name": "1998-067XS", "group": "last-30-days", "lat": -42.39999860180096, "lon": 22.645707955169105, "alt_km": 415.34220508471844, "timestamp": "2025-12-27T12:55:13.196513+00:00", "meta": {"OBJECT_NAME": "1998-067XS", "OBJECT_ID": "1998-067XS", "EPOCH": "2025-12-26T15:31:52.021632", "MEAN_MOTION": 15.5132596, "ECCENTRICITY": 0.00026732, "INCLINATION": 51.6319, "RA_OF_ASC_NODE": 73.4106, "ARG_OF_PERICENTER": 274.6449, "MEAN_ANOMALY": 85.4236, "EPHEMERIS_TYPE": 0, "CLASSIFICATION_TYPE": "U", "NORAD_CAT_ID": 66906, "ELEMENT_SET_NO": 999, "REV_AT_EPOCH": 377, "BSTAR": 0.00048784884, "MEAN_MOTION_DOT": 0.0002883, "MEAN_MOTION_DDOT": 0}, "tle": {"line1": "1 66906U 98067XS  25360.64712988  .00028830  00000+0  48785-3 0  9993", "line2": "2 66906  51.6319  73.4106 0002673 274.6449  85.4236 15.51325960  3771"}}, "geometry": {"type": "Point", "coordinates": [22.645707955169105, -42.39999860180096]}}, {"type": "Feature", "properties": {"norad_id": 66907, "name": "1998-067XT", "group": "last-30-days", "lat": 23.26135995804371, "lon": 88.70985713710992, "alt_km": 403.5975632776526, "timestamp": "2025-12-27T12:55:13.196525+00:00", "meta": {"OBJECT_NAME": "1998-067XT", "OBJECT_ID": "1998-067XT", "EPOCH": "2025-12-27T05:04:13.175904", "MEAN_MOTION": 15.53277989, "ECCENTRICITY": 0.00038082, "INCLINATION": 51.6318, "RA_OF_ASC_NODE": 70.428, "ARG_OF_PERICENTER": 315.2728, "MEAN_ANOMALY": 44.7954, "EPHEMERIS_TYPE": 0, "CLASSIFICATION_TYPE": "U", "NORAD_CAT_ID": 66907, "ELEMENT_SET_NO": 999, "REV_AT_EPOCH": 386, "BSTAR": 0.0010975373, "MEAN_MOTION_DOT": 0.00070608, "MEAN_MOTION_DDOT": 0}, "tle": {"line1": "1 66907U 98067XT  25361.21126361  .00070608  00000+0  10975-2 0  9991", "line2": "2 66907  51.6318  70.4280 0003808 315.2728  44.7954 15.53277989  3868"}}, "geometry": {"type": "Point", "coordinates": [88.70985713710992, 23.26135995804371]}}, {"type": "Feature", "properties": {"norad_id": 66908, "name": "1998-067XU", "group": "last-30-days", "lat": 28.01551017860192, "lon": 93.71483567765307, "alt_km": 403.1416590692661, "timestamp": "2025-12-27T12:55:13.196536+00:00", "meta": {"OBJECT_NAME": "1998-067XU", "OBJECT_ID": "1998-067XU", "EPOCH": "2025-12-27T05:02:32.565696", "MEAN_MOTION": 15.5331388, "ECCENTRICITY": 0.00039981, "INCLINATION": 51.6321, "RA_OF_ASC_NODE": 70.4196, "ARG_OF_PERICENTER": 312.4216, "MEAN_ANOMALY": 47.6435, "EPHEMERIS_TYPE": 0, "CLASSIFICATION_TYPE": "U", "NORAD_CAT_ID": 66908, "ELEMENT_SET_NO": 999, "REV_AT_EPOCH": 386, "BSTAR": 0.00094152837, "MEAN_MOTION_DOT": 0.00060507, "MEAN_MOTION_DDOT": 0}, "tle": {"line1": "1 66908U 98067XU  25361.21009914  .00060507  00000+0  94153-3 0  9994", "line2": "2 66908  51.6321  70.4196 0003998 312.4216  47.6435 15.53313880  3867"}}, "geometry": {"type": "Point", "coordinates": [93.71483567765307, 28.01551017860192]}}, {"type": "Feature", "properties": {"norad_id": 66909, "name": "SILVERSAT", "group": "last-30-days", "lat": 35.819291623626015, "lon": 103.63661026025487, "alt_km": 401.1805941455141, "timestamp": "2025-12-27T12:55:13.196546+00:00", "meta": {"OBJECT_NAME": "SILVERSAT", "OBJECT_ID": "1998-067XV", "EPOCH": "2025-12-27T04:59:41.464320", "MEAN_MOTION": 15.53631692, "ECCENTRICITY": 0.0003877, "INCLINATION": 51.6317, "RA_OF_ASC_NODE": 70.4068, "ARG_OF_PERICENTER": 318.5439, "MEAN_ANOMALY": 41.5257, "EPHEMERIS_TYPE": 0, "CLASSIFICATION_TYPE": "U", "NORAD_CAT_ID": 66909, "ELEMENT_SET_NO": 999, "REV_AT_EPOCH": 386, "BSTAR": 0.0011884923, "MEAN_MOTION_DOT": 0.00077561, "MEAN_MOTION_DDOT": 0}, "tle": {"line1": "1 66909U 98067XV  25361.20811880  .00077561  00000+0  11885-2 0  9995", "line2": "2 66909  51.6317  70.4068 0003877 318.5439  41.5257 15.53631692  3860"}}, "geometry": {"type": "Point", "coordinates": [103.63661026025487, 35.819291623626015]}}]}